{"fetched_at":"2026-03-29T02:12:04Z","count":15717,"tles":[{"name":"STARLINK-34835","line1":"1 65336U 25189P   26087.38019946  .00025631  00000+0  87373-3 0  9998","line2":"2 65336  53.1585 120.2672 0001711  56.0253 304.0911 15.30228957 33964","category":"Starlink"}]}