{
  "norad_id": 65336,
  "name": "STARLINK-34835",
  "history": [
    {
      "epoch": "2026-03-28T09:07:29.233344",
      "apogee_km": 476.3015468095109,
      "perigee_km": 473.9556739910722,
      "latitude_deg": 2.076832605778855,
      "longitude_deg": 30.099148160079494,
      "semi_major_axis_km": 6853.265610400292,
      "eccentricity": 0.00017115,
      "inclination_deg": 53.1585,
      "raan_deg": 120.2672,
      "arg_perigee_deg": 56.0253,
      "mean_anomaly_deg": 304.0911,
      "mean_motion_rev_day": 15.30228957
    }
  ]
}